{
  "type": "FeatureCollection",
  "features": [
    {
      "type": "Feature",
      "properties": {
        "norad_id": 25590,
        "name": "COSMOS 2361",
        "group": "musson",
        "lat": 0.45823554075836725,
        "lon": -12.24701228748639,
        "alt_km": 987.2440845684541,
        "timestamp": "2025-12-07T20:38:14.333681+00:00",
        "meta_object_name": "COSMOS 2361",
        "meta_object_id": "1998-076A",
        "meta_epoch": "2025-12-07T06:41:46.983264",
        "meta_mean_motion": 13.73216594,
        "meta_eccentricity": 0.00300867,
        "meta_inclination": 82.9339,
        "meta_ra_of_asc_node": 348.1256,
        "meta_arg_of_pericenter": 281.4676,
        "meta_mean_anomaly": 88.7971,
        "meta_ephemeris_type": 0,
        "meta_classification_type": "U",
        "meta_norad_cat_id": 25590,
        "meta_element_set_no": 999,
        "meta_rev_at_epoch": 35036,
        "meta_bstar": 8.4462006e-05,
        "meta_mean_motion_dot": 9.3e-07,
        "meta_mean_motion_ddot": 0,
        "tle_line1": "1 25590U 98076A   25341.27901601  .00000093  00000+0  84462-4 0  9991",
        "tle_line2": "2 25590  82.9339 348.1256 0030086 281.4676  88.7971 13.73216594350365"
      },
      "geometry": {
        "type": "Point",
        "coordinates": [
          -12.24701228748639,
          0.45823554075836725
        ]
      }
    },
    {
      "type": "Feature",
      "properties": {
        "norad_id": 26818,
        "name": "COSMOS 2378",
        "group": "musson",
        "lat": 55.819245346231725,
        "lon": 13.876958622352493,
        "alt_km": 1001.9099060393482,
        "timestamp": "2025-12-07T20:38:14.333703+00:00",
        "meta_object_name": "COSMOS 2378",
        "meta_object_id": "2001-023A",
        "meta_epoch": "2025-12-07T01:16:49.340640",
        "meta_mean_motion": 13.74141321,
        "meta_eccentricity": 0.00320941,
        "meta_inclination": 82.9275,
        "meta_ra_of_asc_node": 3.9415,
        "meta_arg_of_pericenter": 221.0369,
        "meta_mean_anomaly": 167.976,
        "meta_ephemeris_type": 0,
        "meta_classification_type": "U",
        "meta_norad_cat_id": 26818,
        "meta_element_set_no": 999,
        "meta_rev_at_epoch": 22845,
        "meta_bstar": 7.1343665e-05,
        "meta_mean_motion_dot": 8.2e-07,
        "meta_mean_motion_ddot": 0,
        "tle_line1": "1 26818U 01023A   25341.05334885  .00000082  00000+0  71344-4 0  9994",
        "tle_line2": "2 26818  82.9275   3.9415 0032094 221.0369 167.9760 13.74141321228457"
      },
      "geometry": {
        "type": "Point",
        "coordinates": [
          13.876958622352493,
          55.819245346231725
        ]
      }
    },
    {
      "type": "Feature",
      "properties": {
        "norad_id": 27436,
        "name": "COSMOS 2389",
        "group": "musson",
        "lat": -64.9805622831811,
        "lon": 145.9735473873235,
        "alt_km": 1023.1422628769915,
        "timestamp": "2025-12-07T20:38:14.333717+00:00",
        "meta_object_name": "COSMOS 2389",
        "meta_object_id": "2002-026A",
        "meta_epoch": "2025-12-07T03:46:59.523168",
        "meta_mean_motion": 13.75153827,
        "meta_eccentricity": 0.0047738,
        "meta_inclination": 82.9497,
        "meta_ra_of_asc_node": 311.1174,
        "meta_arg_of_pericenter": 75.9061,
        "meta_mean_anomaly": 295.3096,
        "meta_ephemeris_type": 0,
        "meta_classification_type": "U",
        "meta_norad_cat_id": 27436,
        "meta_element_set_no": 999,
        "meta_rev_at_epoch": 18072,
        "meta_bstar": 9.0493798e-05,
        "meta_mean_motion_dot": 1.03e-06,
        "meta_mean_motion_ddot": 0,
        "tle_line1": "1 27436U 02026A   25341.15763337  .00000103  00000+0  90494-4 0  9995",
        "tle_line2": "2 27436  82.9497 311.1174 0047738  75.9061 295.3096 13.75153827180722"
      },
      "geometry": {
        "type": "Point",
        "coordinates": [
          145.9735473873235,
          -64.9805622831811
        ]
      }
    },
    {
      "type": "Feature",
      "properties": {
        "norad_id": 27818,
        "name": "COSMOS 2398",
        "group": "musson",
        "lat": -66.39236203399737,
        "lon": 112.74692893246161,
        "alt_km": 1011.0540334486095,
        "timestamp": "2025-12-07T20:38:14.333729+00:00",
        "meta_object_name": "COSMOS 2398",
        "meta_object_id": "2003-023A",
        "meta_epoch": "2025-12-07T08:01:40.329120",
        "meta_mean_motion": 13.72384834,
        "meta_eccentricity": 0.00323842,
        "meta_inclination": 82.948,
        "meta_ra_of_asc_node": 276.6815,
        "meta_arg_of_pericenter": 126.2843,
        "meta_mean_anomaly": 46.4754,
        "meta_ephemeris_type": 0,
        "meta_classification_type": "U",
        "meta_norad_cat_id": 27818,
        "meta_element_set_no": 999,
        "meta_rev_at_epoch": 12742,
        "meta_bstar": 8.0827629e-05,
        "meta_mean_motion_dot": 8.9e-07,
        "meta_mean_motion_ddot": 0,
        "tle_line1": "1 27818U 03023A   25341.33449455  .00000089  00000+0  80828-4 0  9992",
        "tle_line2": "2 27818  82.9480 276.6815 0032384 126.2843  46.4754 13.72384834127429"
      },
      "geometry": {
        "type": "Point",
        "coordinates": [
          112.74692893246161,
          -66.39236203399737
        ]
      }
    },
    {
      "type": "Feature",
      "properties": {
        "norad_id": 28380,
        "name": "COSMOS 2407",
        "group": "musson",
        "lat": 13.282294560380864,
        "lon": -141.82325729972553,
        "alt_km": 960.6538195342964,
        "timestamp": "2025-12-07T20:38:14.333740+00:00",
        "meta_object_name": "COSMOS 2407",
        "meta_object_id": "2004-028A",
        "meta_epoch": "2025-12-07T02:11:44.272032",
        "meta_mean_motion": 13.7631273,
        "meta_eccentricity": 0.00404792,
        "meta_inclination": 82.9614,
        "meta_ra_of_asc_node": 217.0744,
        "meta_arg_of_pericenter": 70.1604,
        "meta_mean_anomaly": 98.6325,
        "meta_ephemeris_type": 0,
        "meta_classification_type": "U",
        "meta_norad_cat_id": 28380,
        "meta_element_set_no": 999,
        "meta_rev_at_epoch": 7345,
        "meta_bstar": 0.00010318611,
        "meta_mean_motion_dot": 1.17e-06,
        "meta_mean_motion_ddot": 0,
        "tle_line1": "1 28380U 04028A   25341.09148463  .00000117  00000+0  10319-3 0  9990",
        "tle_line2": "2 28380  82.9614 217.0744 0040479  70.1604  98.6325 13.76312730 73455"
      },
      "geometry": {
        "type": "Point",
        "coordinates": [
          -141.82325729972553,
          13.282294560380864
        ]
      }
    },
    {
      "type": "Feature",
      "properties": {
        "norad_id": 28521,
        "name": "COSMOS 2414",
        "group": "musson",
        "lat": 72.10245331688232,
        "lon": -149.11818203150892,
        "alt_km": 923.7155533136674,
        "timestamp": "2025-12-07T20:38:14.333751+00:00",
        "meta_object_name": "COSMOS 2414",
        "meta_object_id": "2005-002A",
        "meta_epoch": "2025-12-07T01:15:02.816352",
        "meta_mean_motion": 13.87901921,
        "meta_eccentricity": 0.00405539,
        "meta_inclination": 82.9497,
        "meta_ra_of_asc_node": 188.9606,
        "meta_arg_of_pericenter": 155.675,
        "meta_mean_anomaly": 204.634,
        "meta_ephemeris_type": 0,
        "meta_classification_type": "U",
        "meta_norad_cat_id": 28521,
        "meta_element_set_no": 999,
        "meta_rev_at_epoch": 5716,
        "meta_bstar": 9.2791976e-05,
        "meta_mean_motion_dot": 1.27e-06,
        "meta_mean_motion_ddot": 0,
        "tle_line1": "1 28521U 05002A   25341.05211593  .00000127  00000+0  92792-4 0  9998",
        "tle_line2": "2 28521  82.9497 188.9606 0040553 155.6750 204.6340 13.87901921 57162"
      },
      "geometry": {
        "type": "Point",
        "coordinates": [
          -149.11818203150892,
          72.10245331688232
        ]
      }
    },
    {
      "type": "Feature",
      "properties": {
        "norad_id": 32052,
        "name": "COSMOS 2429",
        "group": "musson",
        "lat": 70.61752763416985,
        "lon": 7.407030484950539,
        "alt_km": 947.1459825825614,
        "timestamp": "2025-12-07T20:38:14.333762+00:00",
        "meta_object_name": "COSMOS 2429",
        "meta_object_id": "2007-038A",
        "meta_epoch": "2025-12-07T06:19:17.458464",
        "meta_mean_motion": 13.751486,
        "meta_eccentricity": 0.00394888,
        "meta_inclination": 82.9803,
        "meta_ra_of_asc_node": 347.3463,
        "meta_arg_of_pericenter": 52.7714,
        "meta_mean_anomaly": 307.7034,
        "meta_ephemeris_type": 0,
        "meta_classification_type": "U",
        "meta_norad_cat_id": 32052,
        "meta_element_set_no": 999,
        "meta_rev_at_epoch": 91527,
        "meta_bstar": 7.1082829e-05,
        "meta_mean_motion_dot": 8.4e-07,
        "meta_mean_motion_ddot": 0,
        "tle_line1": "1 32052U 07038A   25341.26339651  .00000084  00000+0  71083-4 0  9994",
        "tle_line2": "2 32052  82.9803 347.3463 0039488  52.7714 307.7034 13.75148600915275"
      },
      "geometry": {
        "type": "Point",
        "coordinates": [
          7.407030484950539,
          70.61752763416985
        ]
      }
    },
    {
      "type": "Feature",
      "properties": {
        "norad_id": 35635,
        "name": "COSMOS 2454",
        "group": "musson",
        "lat": 82.8272329364065,
        "lon": -108.3862972955775,
        "alt_km": 906.4553380257476,
        "timestamp": "2025-12-07T20:38:14.333772+00:00",
        "meta_object_name": "COSMOS 2454",
        "meta_object_id": "2009-039A",
        "meta_epoch": "2025-12-07T07:13:05.244096",
        "meta_mean_motion": 13.89927659,
        "meta_eccentricity": 0.00204884,
        "meta_inclination": 82.9557,
        "meta_ra_of_asc_node": 172.768,
        "meta_arg_of_pericenter": 88.2753,
        "meta_mean_anomaly": 84.2311,
        "meta_ephemeris_type": 0,
        "meta_classification_type": "U",
        "meta_norad_cat_id": 35635,
        "meta_element_set_no": 999,
        "meta_rev_at_epoch": 83074,
        "meta_bstar": 7.7890277e-05,
        "meta_mean_motion_dot": 1.12e-06,
        "meta_mean_motion_ddot": 0,
        "tle_line1": "1 35635U 09039A   25341.30075514  .00000112  00000+0  77890-4 0  9991",
        "tle_line2": "2 35635  82.9557 172.7680 0020488  88.2753  84.2311 13.89927659830746"
      },
      "geometry": {
        "type": "Point",
        "coordinates": [
          -108.3862972955775,
          82.8272329364065
        ]
      }
    },
    {
      "type": "Feature",
      "properties": {
        "norad_id": 36519,
        "name": "COSMOS 2463",
        "group": "musson",
        "lat": 82.9549295524308,
        "lon": 118.75475875572494,
        "alt_km": 1007.9371693420817,
        "timestamp": "2025-12-07T20:38:14.333782+00:00",
        "meta_object_name": "COSMOS 2463",
        "meta_object_id": "2010-017A",
        "meta_epoch": "2025-12-06T22:17:11.124672",
        "meta_mean_motion": 13.71648343,
        "meta_eccentricity": 0.00349564,
        "meta_inclination": 82.9617,
        "meta_ra_of_asc_node": 30.9827,
        "meta_arg_of_pericenter": 304.7523,
        "meta_mean_anomaly": 228.7937,
        "meta_ephemeris_type": 0,
        "meta_classification_type": "U",
        "meta_norad_cat_id": 36519,
        "meta_element_set_no": 999,
        "meta_rev_at_epoch": 78157,
        "meta_bstar": 8.2092979e-05,
        "meta_mean_motion_dot": 8.9e-07,
        "meta_mean_motion_ddot": 0,
        "tle_line1": "1 36519U 10017A   25340.92860098  .00000089  00000+0  82093-4 0  9991",
        "tle_line2": "2 36519  82.9617  30.9827 0034956 304.7523 228.7937 13.71648343781575"
      },
      "geometry": {
        "type": "Point",
        "coordinates": [
          118.75475875572494,
          82.9549295524308
        ]
      }
    }
  ]
}